{
    "links": {
        "self": "http://www.neowsapp.com/rest/v1/neo/3445077?api_key=iIulBulltgU6a56xZRHN4H3l9WmuAYTsLGpBGhQ2"
    },
    "id": "3445077",
    "neo_reference_id": "3445077",
    "name": "(2009 BM58)",
    "designation": "2009 BM58",
    "nasa_jpl_url": "http://ssd.jpl.nasa.gov/sbdb.cgi?sstr=3445077",
    "absolute_magnitude_h": 24.2,
    "estimated_diameter": {
        "kilometers": {
            "estimated_diameter_min": 0.0384197891,
            "estimated_diameter_max": 0.0859092601
        },
        "meters": {
            "estimated_diameter_min": 38.4197891064,
            "estimated_diameter_max": 85.9092601232
        },
        "miles": {
            "estimated_diameter_min": 0.0238729428,
            "estimated_diameter_max": 0.0533815229
        },
        "feet": {
            "estimated_diameter_min": 126.0491808919,
            "estimated_diameter_max": 281.8545369825
        }
    },
    "is_potentially_hazardous_asteroid": false,
    "close_approach_data": [
        {
            "close_approach_date": "2004-12-13",
            "close_approach_date_full": "2004-Dec-13 08:50",
            "epoch_date_close_approach": 1102927800000,
            "relative_velocity": {
                "kilometers_per_second": "13.6585793934",
                "kilometers_per_hour": "49170.8858162868",
                "miles_per_hour": "30552.8762451255"
            },
            "miss_distance": {
                "astronomical": "0.2823174088",
                "lunar": "109.8214720232",
                "kilometers": "42234083.020399256",
                "miles": "26243042.2828354928"
            },
            "orbiting_body": "Earth"
        },
        {
            "close_approach_date": "2009-01-23",
            "close_approach_date_full": "2009-Jan-23 06:06",
            "epoch_date_close_approach": 1232690760000,
            "relative_velocity": {
                "kilometers_per_second": "7.3631894092",
                "kilometers_per_hour": "26507.4818730831",
                "miles_per_hour": "16470.7183894166"
            },
            "miss_distance": {
                "astronomical": "0.0714163145",
                "lunar": "27.7809463405",
                "kilometers": "10683728.532450115",
                "miles": "6638561.075896987"
            },
            "orbiting_body": "Earth"
        },
        {
            "close_approach_date": "2013-02-22",
            "close_approach_date_full": "2013-Feb-22 12:02",
            "epoch_date_close_approach": 1361534520000,
            "relative_velocity": {
                "kilometers_per_second": "14.7411289975",
                "kilometers_per_hour": "53068.06439091",
                "miles_per_hour": "32974.4314544518"
            },
            "miss_distance": {
                "astronomical": "0.2813875973",
                "lunar": "109.4597753497",
                "kilometers": "42094985.200497751",
                "miles": "26156610.9054249238"
            },
            "orbiting_body": "Earth"
        },
        {
            "close_approach_date": "2132-01-01",
            "close_approach_date_full": "2132-Jan-01 01:08",
            "epoch_date_close_approach": 5112205680000,
            "relative_velocity": {
                "kilometers_per_second": "10.4436691939",
                "kilometers_per_hour": "37597.2090981314",
                "miles_per_hour": "23361.4436198917"
            },
            "miss_distance": {
                "astronomical": "0.0865837017",
                "lunar": "33.6810599613",
                "kilometers": "12952737.351035379",
                "miles": "8048457.7779870702"
            },
            "orbiting_body": "Earth"
        }
    ],
    "orbital_data": {
        "orbit_id": "12",
        "orbit_determination_date": "2017-04-06 09:01:31",
        "first_observation_date": "2009-01-29",
        "last_observation_date": "2009-03-03",
        "data_arc_in_days": 33,
        "observations_used": 56,
        "orbit_uncertainty": "7",
        "minimum_orbit_intersection": ".0667308",
        "jupiter_tisserand_invariant": "3.171",
        "epoch_osculation": "2459000.5",
        "eccentricity": ".5902541032720394",
        "semi_major_axis": "2.53820027094997",
        "inclination": "6.067608980010886",
        "ascending_node_longitude": "319.5227532251049",
        "orbital_period": "1477.022992967969",
        "perihelion_distance": "1.040017146095548",
        "perihelion_argument": "155.6478703423472",
        "aphelion_distance": "4.036383395804393",
        "perihelion_time": "2459283.019384170661",
        "mean_anomaly": "291.1405585521285",
        "mean_motion": ".2437335110651232",
        "equinox": "J2000",
        "orbit_class": {
            "orbit_class_type": "AMO",
            "orbit_class_description": "Near-Earth asteroid orbits similar to that of 1221 Amor",
            "orbit_class_range": "1.017 AU < q (perihelion) < 1.3 AU"
        }
    },
    "is_sentry_object": false
}